start=new Date('2022-03-29T00:00:00.000Z').valueOf();
sats=[{"TIME_SYSTEM":"UTC","FILE":"3378342","CLASSIFICATION_TYPE":"U","RCS_SIZE":"LARGE","NORAD_CAT_ID":"46794","OBJECT_TYPE":"PAYLOAD","DECAY_DATE":null,"ARG_OF_PERICENTER":"53.2619","OBJECT_NAME":"STARLINK-1942","INCLINATION":"53.0545","PERIAPSIS":"545.926","ELEMENT_SET_NO":"999","PERIOD":"95.592","LAUNCH_DATE":"2020-10-24","ECCENTRICITY":"0.00018350","TLE_LINE1":"1 46794U 20074BH  22087.86915695  .00002160  00000-0  16386-3 0  9997","REV_AT_EPOCH":"7936","APOAPSIS":"548.468","MEAN_ELEMENT_THEORY":"SGP4","RA_OF_ASC_NODE":"314.2097","GP_ID":"199943553","CENTER_NAME":"EARTH","EPHEMERIS_TYPE":"0","SEMIMAJOR_AXIS":"6925.332","MEAN_ANOMALY":"306.8538","COUNTRY_CODE":"US","BSTAR":"0.00016386000000","SITE":"AFETR","OBJECT_ID":"2020-074BH","MEAN_MOTION":"15.06405450","MEAN_MOTION_DOT":"0.00002160","TLE_LINE2":"2 46794  53.0545 314.2097 0001835  53.2619 306.8538 15.06405450 79361","EPOCH":"2022-03-28T20:51:35.160480","REF_FRAME":"TEME","MEAN_MOTION_DDOT":"0.0000000000000"},{"MEAN_ANOMALY":"313.1690","COUNTRY_CODE":"US","BSTAR":"0.00017272000000","SITE":"AFETR","EPHEMERIS_TYPE":"0","SEMIMAJOR_AXIS":"6925.327","RA_OF_ASC_NODE":"304.0259","GP_ID":"199942301","CENTER_NAME":"EARTH","APOAPSIS":"548.444","MEAN_ELEMENT_THEORY":"SGP4","REF_FRAME":"TEME","MEAN_MOTION_DDOT":"0.0000000000000","TLE_LINE2":"2 46796  53.0550 304.0259 0001807  46.9450 313.1690 15.06407000 79506","EPOCH":"2022-03-28T21:51:17.453952","MEAN_MOTION":"15.06407000","MEAN_MOTION_DOT":"0.00002292","OBJECT_ID":"2020-074BK","CLASSIFICATION_TYPE":"U","NORAD_CAT_ID":"46796","RCS_SIZE":"LARGE","OBJECT_TYPE":"PAYLOAD","ARG_OF_PERICENTER":"46.9450","DECAY_DATE":null,"FILE":"3378342","TIME_SYSTEM":"UTC","ECCENTRICITY":"0.00018070","TLE_LINE1":"1 46796U 20074BK  22087.91061868  .00002292  00000-0  17272-3 0  9990","REV_AT_EPOCH":"7950","PERIOD":"95.592","LAUNCH_DATE":"2020-10-24","ELEMENT_SET_NO":"999","OBJECT_NAME":"STARLINK-1944","INCLINATION":"53.0550","PERIAPSIS":"545.941"},{"PERIAPSIS":"326.161","OBJECT_NAME":"STARLINK-1947","INCLINATION":"53.0486","ELEMENT_SET_NO":"999","LAUNCH_DATE":"2020-10-24","PERIOD":"91.173","TLE_LINE1":"1 46797U 20074BL  22087.88968179  .00077031  00000-0  41615-3 0  9999","REV_AT_EPOCH":"8076","ECCENTRICITY":"0.00088490","TIME_SYSTEM":"UTC","FILE":"3378342","OBJECT_TYPE":"PAYLOAD","ARG_OF_PERICENTER":"279.8552","DECAY_DATE":null,"CLASSIFICATION_TYPE":"U","RCS_SIZE":"LARGE","NORAD_CAT_ID":"46797","OBJECT_ID":"2020-074BL","MEAN_MOTION":"15.79415054","MEAN_MOTION_DOT":"0.00077031","EPOCH":"2022-03-28T21:21:08.506656","TLE_LINE2":"2 46797  53.0486 214.8753 0008849 279.8552  80.1469 15.79415054 80768","REF_FRAME":"TEME","MEAN_MOTION_DDOT":"0.0000000000000","APOAPSIS":"338.037","MEAN_ELEMENT_THEORY":"SGP4","GP_ID":"199942551","CENTER_NAME":"EARTH","RA_OF_ASC_NODE":"214.8753","SEMIMAJOR_AXIS":"6710.234","EPHEMERIS_TYPE":"0","BSTAR":"0.00041615000000","COUNTRY_CODE":"US","SITE":"AFETR","MEAN_ANOMALY":"80.1469"},{"EPHEMERIS_TYPE":"0","SEMIMAJOR_AXIS":"6925.307","MEAN_ANOMALY":"291.9736","BSTAR":"0.00064634000000","COUNTRY_CODE":"US","SITE":"AFETR","APOAPSIS":"548.343","MEAN_ELEMENT_THEORY":"SGP4","RA_OF_ASC_NODE":"329.1785","GP_ID":"199943303","CENTER_NAME":"EARTH","TLE_LINE2":"2 46798  53.0548 329.1785 0001692  68.1433 291.9736 15.06413682 79154","EPOCH":"2022-03-28T21:01:30.412416","REF_FRAME":"TEME","MEAN_MOTION_DDOT":"0.0000000000000","OBJECT_ID":"2020-074BM","MEAN_MOTION_DOT":"0.00009362","MEAN_MOTION":"15.06413682","CLASSIFICATION_TYPE":"U","RCS_SIZE":"LARGE","NORAD_CAT_ID":"46798","OBJECT_TYPE":"PAYLOAD","DECAY_DATE":null,"ARG_OF_PERICENTER":"68.1433","TIME_SYSTEM":"UTC","FILE":"3378342","PERIOD":"95.591","LAUNCH_DATE":"2020-10-24","ECCENTRICITY":"0.00016920","TLE_LINE1":"1 46798U 20074BM  22087.87604644  .00009362  00000-0  64634-3 0  9991","REV_AT_EPOCH":"7915","OBJECT_NAME":"STARLINK-1948","INCLINATION":"53.0548","PERIAPSIS":"546.000","ELEMENT_SET_NO":"999"},{"OBJECT_ID":"2020-088A","MEAN_MOTION":"15.06402443","MEAN_MOTION_DOT":"0.00000942","EPOCH":"2022-03-28T19:55:51.584160","TLE_LINE2":"2 47122  53.0538 294.3669 0001387  85.4149 274.6999 15.06402443 74513","MEAN_MOTION_DDOT":"0.0000000000000","REF_FRAME":"TEME","MEAN_ELEMENT_THEORY":"SGP4","APOAPSIS":"548.167","CENTER_NAME":"EARTH","GP_ID":"199943591","RA_OF_ASC_NODE":"294.3669","SEMIMAJOR_AXIS":"6925.341","EPHEMERIS_TYPE":"0","SITE":"AFETR","BSTAR":"0.00008215100000","COUNTRY_CODE":"US","MEAN_ANOMALY":"274.6999","PERIAPSIS":"546.246","INCLINATION":"53.0538","OBJECT_NAME":"STARLINK-1777","ELEMENT_SET_NO":"999","LAUNCH_DATE":"2020-11-25","PERIOD":"95.592","REV_AT_EPOCH":"7451","TLE_LINE1":"1 47122U 20088A   22087.83045815  .00000942  00000-0  82151-4 0  9993","ECCENTRICITY":"0.00013870","TIME_SYSTEM":"UTC","FILE":"3378342","DECAY_DATE":null,"ARG_OF_PERICENTER":"85.4149","OBJECT_TYPE":"PAYLOAD","NORAD_CAT_ID":"47122","RCS_SIZE":"LARGE","CLASSIFICATION_TYPE":"U"},{"EPOCH":"2022-03-28T16:24:10.904256","TLE_LINE2":"2 47124  53.0550 300.0422 0001560  78.8937 281.2228 15.06395343 74424","REF_FRAME":"TEME","MEAN_MOTION_DDOT":"0.0000000000000","OBJECT_ID":"2020-088C","MEAN_MOTION":"15.06395343","MEAN_MOTION_DOT":"0.00000984","SEMIMAJOR_AXIS":"6925.363","EPHEMERIS_TYPE":"0","COUNTRY_CODE":"US","BSTAR":"0.00008498400000","SITE":"AFETR","MEAN_ANOMALY":"281.2228","APOAPSIS":"548.308","MEAN_ELEMENT_THEORY":"SGP4","GP_ID":"199942339","CENTER_NAME":"EARTH","RA_OF_ASC_NODE":"300.0422","LAUNCH_DATE":"2020-11-25","PERIOD":"95.592","TLE_LINE1":"1 47124U 20088C   22087.68345954  .00000984  00000-0  84984-4 0  9997","REV_AT_EPOCH":"7442","ECCENTRICITY":"0.00015600","PERIAPSIS":"546.147","OBJECT_NAME":"STARLINK-1785","INCLINATION":"53.0550","ELEMENT_SET_NO":"999","OBJECT_TYPE":"PAYLOAD","DECAY_DATE":null,"ARG_OF_PERICENTER":"78.8937","CLASSIFICATION_TYPE":"U","RCS_SIZE":"LARGE","NORAD_CAT_ID":"47124","TIME_SYSTEM":"UTC","FILE":"3378342"},{"RA_OF_ASC_NODE":"294.2537","GP_ID":"199942589","CENTER_NAME":"EARTH","APOAPSIS":"548.284","MEAN_ELEMENT_THEORY":"SGP4","MEAN_ANOMALY":"291.7973","BSTAR":"0.00007165600000","COUNTRY_CODE":"US","SITE":"AFETR","EPHEMERIS_TYPE":"0","SEMIMAJOR_AXIS":"6925.337","MEAN_MOTION_DOT":"0.00000786","MEAN_MOTION":"15.06403896","OBJECT_ID":"2020-088E","REF_FRAME":"TEME","MEAN_MOTION_DDOT":"0.0000000000000","TLE_LINE2":"2 47126  53.0541 294.2537 0001563  68.3183 291.7973 15.06403896 74524","EPOCH":"2022-03-28T20:33:00.320544","FILE":"3378342","TIME_SYSTEM":"UTC","CLASSIFICATION_TYPE":"U","RCS_SIZE":"LARGE","NORAD_CAT_ID":"47126","OBJECT_TYPE":"PAYLOAD","ARG_OF_PERICENTER":"68.3183","DECAY_DATE":null,"ELEMENT_SET_NO":"999","OBJECT_NAME":"STARLINK-1812","INCLINATION":"53.0541","PERIAPSIS":"546.119","ECCENTRICITY":"0.00015630","TLE_LINE1":"1 47126U 20088E   22087.85625371  .00000786  00000-0  71656-4 0  9994","REV_AT_EPOCH":"7452","PERIOD":"95.592","LAUNCH_DATE":"2020-11-25"},{"SEMIMAJOR_AXIS":"6925.361","EPHEMERIS_TYPE":"0","COUNTRY_CODE":"US","BSTAR":"0.00001850700000","SITE":"AFETR","MEAN_ANOMALY":"290.2411","APOAPSIS":"548.286","MEAN_ELEMENT_THEORY":"SGP4","GP_ID":"199943341","CENTER_NAME":"EARTH","RA_OF_ASC_NODE":"274.4554","EPOCH":"2022-03-28T19:31:58.558080","TLE_LINE2":"2 47128  53.0540 274.4554 0001531  69.8742 290.2411 15.06395899 74799","REF_FRAME":"TEME","MEAN_MOTION_DDOT":"0.0000000000000","OBJECT_ID":"2020-088G","MEAN_MOTION_DOT":"-0.00000006","MEAN_MOTION":"15.06395899","OBJECT_TYPE":"PAYLOAD","ARG_OF_PERICENTER":"69.8742","DECAY_DATE":null,"CLASSIFICATION_TYPE":"U","RCS_SIZE":"LARGE","NORAD_CAT_ID":"47128","TIME_SYSTEM":"UTC","FILE":"3378342","LAUNCH_DATE":"2020-11-25","PERIOD":"95.592","TLE_LINE1":"1 47128U 20088G   22087.81387220 -.00000006  00000-0  18507-4 0  9992","REV_AT_EPOCH":"7479","ECCENTRICITY":"0.00015310","PERIAPSIS":"546.166","OBJECT_NAME":"STARLINK-1837","INCLINATION":"53.0540","ELEMENT_SET_NO":"999"},{"TLE_LINE2":"2 47129  53.0547 284.3201 0001640  64.9154 295.2005 15.06401055 74662","EPOCH":"2022-03-28T20:13:06.161088","MEAN_MOTION_DDOT":"0.0000000000000","REF_FRAME":"TEME","OBJECT_ID":"2020-088H","MEAN_MOTION_DOT":"0.00002780","MEAN_MOTION":"15.06401055","EPHEMERIS_TYPE":"0","SEMIMAJOR_AXIS":"6925.345","MEAN_ANOMALY":"295.2005","SITE":"AFETR","BSTAR":"0.00020543000000","COUNTRY_CODE":"US","MEAN_ELEMENT_THEORY":"SGP4","APOAPSIS":"548.346","RA_OF_ASC_NODE":"284.3201","CENTER_NAME":"EARTH","GP_ID":"199944092","PERIOD":"95.592","LAUNCH_DATE":"2020-11-25","ECCENTRICITY":"0.00016400","REV_AT_EPOCH":"7466","TLE_LINE1":"1 47129U 20088H   22087.84243242  .00002780  00000-0  20543-3 0  9993","INCLINATION":"53.0547","OBJECT_NAME":"STARLINK-1838","PERIAPSIS":"546.075","ELEMENT_SET_NO":"999","RCS_SIZE":"LARGE","NORAD_CAT_ID":"47129","CLASSIFICATION_TYPE":"U","ARG_OF_PERICENTER":"64.9154","DECAY_DATE":null,"OBJECT_TYPE":"PAYLOAD","TIME_SYSTEM":"UTC","FILE":"3378342"},{"PERIAPSIS":"545.978","OBJECT_NAME":"STARLINK-1839","INCLINATION":"53.0540","ELEMENT_SET_NO":"999","LAUNCH_DATE":"2020-11-25","PERIOD":"95.592","TLE_LINE1":"1 47130U 20088J   22087.89219181  .00001331  00000-0  10825-3 0  9998","REV_AT_EPOCH":"7438","ECCENTRICITY":"0.00017700","TIME_SYSTEM":"UTC","FILE":"3378342","OBJECT_TYPE":"PAYLOAD","DECAY_DATE":null,"ARG_OF_PERICENTER":"46.9759","CLASSIFICATION_TYPE":"U","RCS_SIZE":"LARGE","NORAD_CAT_ID":"47130","OBJECT_ID":"2020-088J","MEAN_MOTION":"15.06403246","MEAN_MOTION_DOT":"0.00001331","EPOCH":"2022-03-28T21:24:45.372384","TLE_LINE2":"2 47130  53.0540 304.0889 0001770  46.9759 313.1378 15.06403246 74380","REF_FRAME":"TEME","MEAN_MOTION_DDOT":"0.0000000000000","APOAPSIS":"548.429","MEAN_ELEMENT_THEORY":"SGP4","GP_ID":"199942840","CENTER_NAME":"EARTH","RA_OF_ASC_NODE":"304.0889","SEMIMAJOR_AXIS":"6925.339","EPHEMERIS_TYPE":"0","COUNTRY_CODE":"US","BSTAR":"0.00010825000000","SITE":"AFETR","MEAN_ANOMALY":"313.1378"}];
